[{"OBJECT_NAME":"HORS 2","OBJECT_ID":"2023-091AG","EPOCH":"2026-03-09T22:11:34.810944","MEAN_MOTION":15.2928008,"ECCENTRICITY":0.00098173,"INCLINATION":97.5195,"RA_OF_ASC_NODE":134.7443,"ARG_OF_PERICENTER":79.3164,"MEAN_ANOMALY":280.9181,"EPHEMERIS_TYPE":0,"CLASSIFICATION_TYPE":"U","NORAD_CAT_ID":57196,"ELEMENT_SET_NO":999,"REV_AT_EPOCH":14934,"BSTAR":0.00059338338,"MEAN_MOTION_DOT":0.00016821,"MEAN_MOTION_DDOT":0},{"OBJECT_NAME":"STARLINK-30372","OBJECT_ID":"2023-134U","EPOCH":"2026-03-09T01:41:25.416384","MEAN_MOTION":15.27591071,"ECCENTRICITY":0.00021652,"INCLINATION":43.0069,"RA_OF_ASC_NODE":81.8748,"ARG_OF_PERICENTER":274.4128,"MEAN_ANOMALY":85.6476,"EPHEMERIS_TYPE":0,"CLASSIFICATION_TYPE":"U","NORAD_CAT_ID":57789,"ELEMENT_SET_NO":999,"REV_AT_EPOCH":14077,"BSTAR":4.985686e-6,"MEAN_MOTION_DOT":-1.25e-6,"MEAN_MOTION_DDOT":0}]
